GPS BIIF-4              
1 39166U 13023A   26090.90349851 -.00000034  00000+0  00000+0 0  9996
2 39166  54.5658 272.1198 0141962  50.3418 310.8851  2.00563989 94331
INSAT-3D                
1 39216U 13038B   26095.27151667 -.00000337  00000+0  00000+0 0  9995
2 39216   1.7378  83.4509 0001745 266.9238  70.4323  1.00271699 46342
GPS BIIF-5              
1 39533U 14008A   26094.89210251  .00000024  00000+0  00000+0 0  9999
2 39533  53.6410 152.3102 0083289 229.4069 129.9443  2.00555176 88212
LUCH 5V                 
1 39727U 14023A   26094.98775242 -.00000266  00000+0  00000+0 0  9996
2 39727   4.9540  70.4607 0002893 320.3362 252.8216  1.00270325 43628
GPS BIIF-6              
1 39741U 14026A   26094.17145429 -.00000090  00000+0  00000+0 0  9999
2 39741  56.5319 334.4006 0039371 326.0604  33.7376  2.00566566 87054
GPS BIIF-7              
1 40105U 14045A   26094.75949234  .00000001  00000+0  00000+0 0  9997
2 40105  55.3044  91.3884 0031400 119.7821 240.5387  2.00553665 84602
GSAT0201 (GALILEO 5)    
1 40128U 14050A   26094.57587155 -.00000043  00000+0  00000+0 0  9995
2 40128  48.9567 276.4486 1662760 176.5217 184.7885  1.85520165 76951
GSAT0202 (GALILEO 6)    
1 40129U 14050B   26091.59776485 -.00000055  00000+0  00000+0 0  9994
2 40129  48.9773 275.6550 1663302 177.1412 183.9310  1.85520784 79067
GPS BIIF-8              
1 40294U 14068A   26095.13374774 -.00000083  00000+0  00000+0 0  9996
2 40294  56.9408  33.7696 0064296  68.3855 292.2862  2.00571825 83742
GLONASS-K 2             
1 40315U 14075A   26084.30325579  .00000001  00000+0  00000+0 0  9993
2 40315  63.6158 193.2737 0021182 207.3153 152.5805  2.13101287 88064
GPS BIIF-9              
1 40534U 15013A   26094.26958473  .00000003  00000+0  00000+0 0  9992
2 40534  53.1792 207.2341 0108818  39.9307 320.8601  2.00555779 80346
GSAT0203 (GALILEO 7)    
1 40544U 15017A   26094.30331323 -.00000095  00000+0  00000+0 0  9993
2 40544  56.8108 343.6116 0004485 297.4041  62.5970  1.70475988 67943
GSAT0204 (GALILEO 8)    
1 40545U 15017B   26093.97240100 -.00000096  00000+0  00000+0 0  9999
2 40545  56.8167 343.6389 0003117 291.5044  68.5090  1.70475693 30986
GPS BIIF-10             
1 40730U 15033A   26094.92809061 -.00000019  00000+0  00000+0 0  9991
2 40730  54.0412 270.1047 0114942  29.5880 331.0290  2.00560155 78520
METEOSAT-11 (MSG-4)     
1 40732U 15034A   26095.22822667  .00000065  00000+0  00000+0 0  9995
2 40732   3.0186  71.4910 0001744 284.9949 288.5195  1.00276148  6484
GSAT0205 (GALILEO 9)    
1 40889U 15045A   26092.93447196 -.00000016  00000+0  00000+0 0  9992
2 40889  54.9709 223.7776 0004084 270.5301  89.3690  1.67410870 65700
GSAT0206 (GALILEO 10)   
1 40890U 15045B   26093.37447767 -.00000013  00000+0  00000+0 0  9994
2 40890  54.9697 223.6683 0002814  47.1384 312.8358  1.70473950 65765
