[{"OBJECT_NAME":"GPS BIIF-4","OBJECT_ID":"2013-023A","EPOCH":"2026-03-31T21:41:02.271264","MEAN_MOTION":2.00563989,"ECCENTRICITY":0.0141962,"INCLINATION":54.5658,"RA_OF_ASC_NODE":272.1198,"ARG_OF_PERICENTER":50.3418,"MEAN_ANOMALY":310.8851,"EPHEMERIS_TYPE":0,"CLASSIFICATION_TYPE":"U","NORAD_CAT_ID":39166,"ELEMENT_SET_NO":999,"REV_AT_EPOCH":9433,"BSTAR":0,"MEAN_MOTION_DOT":-3.4e-7,"MEAN_MOTION_DDOT":0},{"OBJECT_NAME":"INSAT-3D","OBJECT_ID":"2013-038B","EPOCH":"2026-04-05T06:30:59.040288","MEAN_MOTION":1.00271699,"ECCENTRICITY":0.00017456,"INCLINATION":1.7378,"RA_OF_ASC_NODE":83.4509,"ARG_OF_PERICENTER":266.9238,"MEAN_ANOMALY":70.4323,"EPHEMERIS_TYPE":0,"CLASSIFICATION_TYPE":"U","NORAD_CAT_ID":39216,"ELEMENT_SET_NO":999,"REV_AT_EPOCH":4634,"BSTAR":0,"MEAN_MOTION_DOT":-3.37e-6,"MEAN_MOTION_DDOT":0},{"OBJECT_NAME":"GPS BIIF-5","OBJECT_ID":"2014-008A","EPOCH":"2026-04-04T21:24:37.656864","MEAN_MOTION":2.00555176,"ECCENTRICITY":0.00832898,"INCLINATION":53.641,"RA_OF_ASC_NODE":152.3102,"ARG_OF_PERICENTER":229.4069,"MEAN_ANOMALY":129.9443,"EPHEMERIS_TYPE":0,"CLASSIFICATION_TYPE":"U","NORAD_CAT_ID":39533,"ELEMENT_SET_NO":999,"REV_AT_EPOCH":8821,"BSTAR":0,"MEAN_MOTION_DOT":2.4e-7,"MEAN_MOTION_DDOT":0},{"OBJECT_NAME":"LUCH 5V","OBJECT_ID":"2014-023A","EPOCH":"2026-04-04T23:42:21.809088","MEAN_MOTION":1.00270325,"ECCENTRICITY":0.00028935,"INCLINATION":4.954,"RA_OF_ASC_NODE":70.4607,"ARG_OF_PERICENTER":320.3362,"MEAN_ANOMALY":252.8216,"EPHEMERIS_TYPE":0,"CLASSIFICATION_TYPE":"U","NORAD_CAT_ID":39727,"ELEMENT_SET_NO":999,"REV_AT_EPOCH":4362,"BSTAR":0,"MEAN_MOTION_DOT":-2.66e-6,"MEAN_MOTION_DDOT":0},{"OBJECT_NAME":"GPS BIIF-6","OBJECT_ID":"2014-026A","EPOCH":"2026-04-04T04:06:53.650656","MEAN_MOTION":2.00566566,"ECCENTRICITY":0.0039371,"INCLINATION":56.5319,"RA_OF_ASC_NODE":334.4006,"ARG_OF_PERICENTER":326.0604,"MEAN_ANOMALY":33.7376,"EPHEMERIS_TYPE":0,"CLASSIFICATION_TYPE":"U","NORAD_CAT_ID":39741,"ELEMENT_SET_NO":999,"REV_AT_EPOCH":8705,"BSTAR":0,"MEAN_MOTION_DOT":-9.0e-7,"MEAN_MOTION_DDOT":0},{"OBJECT_NAME":"GPS BIIF-7","OBJECT_ID":"2014-045A","EPOCH":"2026-04-04T18:13:40.138176","MEAN_MOTION":2.00553665,"ECCENTRICITY":0.00314,"INCLINATION":55.3044,"RA_OF_ASC_NODE":91.3884,"ARG_OF_PERICENTER":119.7821,"MEAN_ANOMALY":240.5387,"EPHEMERIS_TYPE":0,"CLASSIFICATION_TYPE":"U","NORAD_CAT_ID":40105,"ELEMENT_SET_NO":999,"REV_AT_EPOCH":8460,"BSTAR":0,"MEAN_MOTION_DOT":1.0e-8,"MEAN_MOTION_DDOT":0},{"OBJECT_NAME":"GSAT0201 (GALILEO 5)","OBJECT_ID":"2014-050A","EPOCH":"2026-04-04T13:49:15.301920","MEAN_MOTION":1.85520165,"ECCENTRICITY":0.166276,"INCLINATION":48.9567,"RA_OF_ASC_NODE":276.4486,"ARG_OF_PERICENTER":176.5217,"MEAN_ANOMALY":184.7885,"EPHEMERIS_TYPE":0,"CLASSIFICATION_TYPE":"U","NORAD_CAT_ID":40128,"ELEMENT_SET_NO":999,"REV_AT_EPOCH":7695,"BSTAR":0,"MEAN_MOTION_DOT":-4.3e-7,"MEAN_MOTION_DDOT":0},{"OBJECT_NAME":"GSAT0202 (GALILEO 6)","OBJECT_ID":"2014-050B","EPOCH":"2026-04-01T14:20:46.883040","MEAN_MOTION":1.85520784,"ECCENTRICITY":0.16633026,"INCLINATION":48.9773,"RA_OF_ASC_NODE":275.655,"ARG_OF_PERICENTER":177.1412,"MEAN_ANOMALY":183.931,"EPHEMERIS_TYPE":0,"CLASSIFICATION_TYPE":"U","NORAD_CAT_ID":40129,"ELEMENT_SET_NO":999,"REV_AT_EPOCH":7906,"BSTAR":0,"MEAN_MOTION_DOT":-5.5e-7,"MEAN_MOTION_DDOT":0},{"OBJECT_NAME":"GPS BIIF-8","OBJECT_ID":"2014-068A","EPOCH":"2026-04-05T03:12:35.804736","MEAN_MOTION":2.00571825,"ECCENTRICITY":0.00642967,"INCLINATION":56.9408,"RA_OF_ASC_NODE":33.7696,"ARG_OF_PERICENTER":68.3855,"MEAN_ANOMALY":292.2862,"EPHEMERIS_TYPE":0,"CLASSIFICATION_TYPE":"U","NORAD_CAT_ID":40294,"ELEMENT_SET_NO":999,"REV_AT_EPOCH":8374,"BSTAR":0,"MEAN_MOTION_DOT":-8.3e-7,"MEAN_MOTION_DDOT":0},{"OBJECT_NAME":"GLONASS-K 2","OBJECT_ID":"2014-075A","EPOCH":"2026-03-25T07:16:41.300256","MEAN_MOTION":2.13101287,"ECCENTRICITY":0.00211828,"INCLINATION":63.6158,"RA_OF_ASC_NODE":193.2737,"ARG_OF_PERICENTER":207.3153,"MEAN_ANOMALY":152.5805,"EPHEMERIS_TYPE":0,"CLASSIFICATION_TYPE":"U","NORAD_CAT_ID":40315,"ELEMENT_SET_NO":999,"REV_AT_EPOCH":8806,"BSTAR":0,"MEAN_MOTION_DOT":1.0e-8,"MEAN_MOTION_DDOT":0},{"OBJECT_NAME":"GPS BIIF-9","OBJECT_ID":"2015-013A","EPOCH":"2026-04-04T06:28:12.120672","MEAN_MOTION":2.00555779,"ECCENTRICITY":0.0108818,"INCLINATION":53.1792,"RA_OF_ASC_NODE":207.2341,"ARG_OF_PERICENTER":39.9307,"MEAN_ANOMALY":320.8601,"EPHEMERIS_TYPE":0,"CLASSIFICATION_TYPE":"U","NORAD_CAT_ID":40534,"ELEMENT_SET_NO":999,"REV_AT_EPOCH":8034,"BSTAR":0,"MEAN_MOTION_DOT":3.0e-8,"MEAN_MOTION_DDOT":0},{"OBJECT_NAME":"GSAT0203 (GALILEO 7)","OBJECT_ID":"2015-017A","EPOCH":"2026-04-04T07:16:46.263072","MEAN_MOTION":1.70475988,"ECCENTRICITY":0.0004485,"INCLINATION":56.8108,"RA_OF_ASC_NODE":343.6116,"ARG_OF_PERICENTER":297.4041,"MEAN_ANOMALY":62.597,"EPHEMERIS_TYPE":0,"CLASSIFICATION_TYPE":"U","NORAD_CAT_ID":40544,"ELEMENT_SET_NO":999,"REV_AT_EPOCH":6794,"BSTAR":0,"MEAN_MOTION_DOT":-9.5e-7,"MEAN_MOTION_DDOT":0},{"OBJECT_NAME":"GSAT0204 (GALILEO 8)","OBJECT_ID":"2015-017B","EPOCH":"2026-04-03T23:20:15.446400","MEAN_MOTION":1.70475693,"ECCENTRICITY":0.0003117,"INCLINATION":56.8167,"RA_OF_ASC_NODE":343.6389,"ARG_OF_PERICENTER":291.5044,"MEAN_ANOMALY":68.509,"EPHEMERIS_TYPE":0,"CLASSIFICATION_TYPE":"U","NORAD_CAT_ID":40545,"ELEMENT_SET_NO":999,"REV_AT_EPOCH":3098,"BSTAR":0,"MEAN_MOTION_DOT":-9.6e-7,"MEAN_MOTION_DDOT":0},{"OBJECT_NAME":"GPS BIIF-10","OBJECT_ID":"2015-033A","EPOCH":"2026-04-04T22:16:27.028704","MEAN_MOTION":2.00560155,"ECCENTRICITY":0.01149427,"INCLINATION":54.0412,"RA_OF_ASC_NODE":270.1047,"ARG_OF_PERICENTER":29.588,"MEAN_ANOMALY":331.029,"EPHEMERIS_TYPE":0,"CLASSIFICATION_TYPE":"U","NORAD_CAT_ID":40730,"ELEMENT_SET_NO":999,"REV_AT_EPOCH":7852,"BSTAR":0,"MEAN_MOTION_DOT":-1.9e-7,"MEAN_MOTION_DDOT":0},{"OBJECT_NAME":"METEOSAT-11 (MSG-4)","OBJECT_ID":"2015-034A","EPOCH":"2026-04-05T05:28:38.784288","MEAN_MOTION":1.00276148,"ECCENTRICITY":0.00017449,"INCLINATION":3.0186,"RA_OF_ASC_NODE":71.491,"ARG_OF_PERICENTER":284.9949,"MEAN_ANOMALY":288.5195,"EPHEMERIS_TYPE":0,"CLASSIFICATION_TYPE":"U","NORAD_CAT_ID":40732,"ELEMENT_SET_NO":999,"REV_AT_EPOCH":648,"BSTAR":0,"MEAN_MOTION_DOT":6.5e-7,"MEAN_MOTION_DDOT":0},{"OBJECT_NAME":"GSAT0205 (GALILEO 9)","OBJECT_ID":"2015-045A","EPOCH":"2026-04-02T22:25:38.377344","MEAN_MOTION":1.6741087,"ECCENTRICITY":0.0004084,"INCLINATION":54.9709,"RA_OF_ASC_NODE":223.7776,"ARG_OF_PERICENTER":270.5301,"MEAN_ANOMALY":89.369,"EPHEMERIS_TYPE":0,"CLASSIFICATION_TYPE":"U","NORAD_CAT_ID":40889,"ELEMENT_SET_NO":999,"REV_AT_EPOCH":6570,"BSTAR":0,"MEAN_MOTION_DOT":-1.6e-7,"MEAN_MOTION_DDOT":0},{"OBJECT_NAME":"GSAT0206 (GALILEO 10)","OBJECT_ID":"2015-045B","EPOCH":"2026-04-03T08:59:14.870688","MEAN_MOTION":1.7047395,"ECCENTRICITY":0.00028142,"INCLINATION":54.9697,"RA_OF_ASC_NODE":223.6683,"ARG_OF_PERICENTER":47.1384,"MEAN_ANOMALY":312.8358,"EPHEMERIS_TYPE":0,"CLASSIFICATION_TYPE":"U","NORAD_CAT_ID":40890,"ELEMENT_SET_NO":999,"REV_AT_EPOCH":6576,"BSTAR":0,"MEAN_MOTION_DOT":-1.3e-7,"MEAN_MOTION_DDOT":0}]
